{
  "type": "FeatureCollection",
  "features": [
    {
      "type": "Feature",
      "properties": {
        "norad_id": 37036,
        "name": "FENGYUN 1C DEB",
        "group": "fengyun-1c-debris",
        "lat": -26.43726200151417,
        "lon": -21.947160145546277,
        "alt_km": 899.727532686713,
        "timestamp": "2025-12-06T16:45:43.011006+00:00",
        "meta_object_name": "FENGYUN 1C DEB",
        "meta_object_id": "1999-025EDU",
        "meta_epoch": "2025-12-05T16:56:11.377536",
        "meta_mean_motion": 14.03551942,
        "meta_eccentricity": 0.01242877,
        "meta_inclination": 98.7131,
        "meta_ra_of_asc_node": 332.7285,
        "meta_arg_of_pericenter": 74.8447,
        "meta_mean_anomaly": 286.6428,
        "meta_ephemeris_type": 0,
        "meta_classification_type": "U",
        "meta_norad_cat_id": 37036,
        "meta_element_set_no": 999,
        "meta_rev_at_epoch": 63649,
        "meta_bstar": 0.00074827918,
        "meta_mean_motion_dot": 1.216e-05,
        "meta_mean_motion_ddot": 0,
        "tle_line1": "1 37036U 99025EDU 25339.70568724  .00001216  00000+0  74828-3 0  9996",
        "tle_line2": "2 37036  98.7131 332.7285 0124287  74.8447 286.6428 14.03551942636496"
      },
      "geometry": {
        "type": "Point",
        "coordinates": [
          -21.947160145546277,
          -26.43726200151417
        ]
      }
    },
    {
      "type": "Feature",
      "properties": {
        "norad_id": 37044,
        "name": "FENGYUN 1C DEB",
        "group": "fengyun-1c-debris",
        "lat": 71.17358813958214,
        "lon": -65.24586633775682,
        "alt_km": 849.8290118685936,
        "timestamp": "2025-12-06T16:45:43.011016+00:00",
        "meta_object_name": "FENGYUN 1C DEB",
        "meta_object_id": "1999-025EEC",
        "meta_epoch": "2025-12-04T02:53:44.693952",
        "meta_mean_motion": 13.70576401,
        "meta_eccentricity": 0.05097958,
        "meta_inclination": 98.9648,
        "meta_ra_of_asc_node": 84.7582,
        "meta_arg_of_pericenter": 184.1906,
        "meta_mean_anomaly": 175.4892,
        "meta_ephemeris_type": 0,
        "meta_classification_type": "U",
        "meta_norad_cat_id": 37044,
        "meta_element_set_no": 999,
        "meta_rev_at_epoch": 83740,
        "meta_bstar": 0.0059542897,
        "meta_mean_motion_dot": 0.0001335,
        "meta_mean_motion_ddot": 0,
        "tle_line1": "1 37044U 99025EEC 25338.12065618  .00013350  00000+0  59543-2 0  9992",
        "tle_line2": "2 37044  98.9648  84.7582 0509795 184.1906 175.4892 13.70576401837404"
      },
      "geometry": {
        "type": "Point",
        "coordinates": [
          -65.24586633775682,
          71.17358813958214
        ]
      }
    },
    {
      "type": "Feature",
      "properties": {
        "norad_id": 37046,
        "name": "FENGYUN 1C DEB",
        "group": "fengyun-1c-debris",
        "lat": 55.22860288208793,
        "lon": -17.389650491152835,
        "alt_km": 804.3010159450341,
        "timestamp": "2025-12-06T16:45:43.011026+00:00",
        "meta_object_name": "FENGYUN 1C DEB",
        "meta_object_id": "1999-025EEE",
        "meta_epoch": "2025-11-28T06:15:00.234432",
        "meta_mean_motion": 14.24764433,
        "meta_eccentricity": 0.00496678,
        "meta_inclination": 98.5468,
        "meta_ra_of_asc_node": 346.9063,
        "meta_arg_of_pericenter": 349.8897,
        "meta_mean_anomaly": 10.1279,
        "meta_ephemeris_type": 0,
        "meta_classification_type": "U",
        "meta_norad_cat_id": 37046,
        "meta_element_set_no": 999,
        "meta_rev_at_epoch": 63975,
        "meta_bstar": 0.00081954575,
        "meta_mean_motion_dot": 1.891e-05,
        "meta_mean_motion_ddot": 0,
        "tle_line1": "1 37046U 99025EEE 25332.26041938  .00001891  00000+0  81955-3 0  9992",
        "tle_line2": "2 37046  98.5468 346.9063 0049667 349.8897  10.1279 14.24764433639751"
      },
      "geometry": {
        "type": "Point",
        "coordinates": [
          -17.389650491152835,
          55.22860288208793
        ]
      }
    },
    {
      "type": "Feature",
      "properties": {
        "norad_id": 37048,
        "name": "FENGYUN 1C DEB",
        "group": "fengyun-1c-debris",
        "lat": 63.354188583304285,
        "lon": 40.68323173258072,
        "alt_km": 888.1051120546472,
        "timestamp": "2025-12-06T16:45:43.011037+00:00",
        "meta_object_name": "FENGYUN 1C DEB",
        "meta_object_id": "1999-025EEG",
        "meta_epoch": "2025-12-02T20:47:13.549056",
        "meta_mean_motion": 13.6513046,
        "meta_eccentricity": 0.02527371,
        "meta_inclination": 98.8882,
        "meta_ra_of_asc_node": 198.9974,
        "meta_arg_of_pericenter": 175.2507,
        "meta_mean_anomaly": 198.4807,
        "meta_ephemeris_type": 0,
        "meta_classification_type": "U",
        "meta_norad_cat_id": 37048,
        "meta_element_set_no": 999,
        "meta_rev_at_epoch": 62035,
        "meta_bstar": 0.00029274294,
        "meta_mean_motion_dot": 2.57e-06,
        "meta_mean_motion_ddot": 0,
        "tle_line1": "1 37048U 99025EEG 25336.86612904  .00000257  00000+0  29274-3 0  9992",
        "tle_line2": "2 37048  98.8882 198.9974 0252737 175.2507 198.4807 13.65130460620359"
      },
      "geometry": {
        "type": "Point",
        "coordinates": [
          40.68323173258072,
          63.354188583304285
        ]
      }
    },
    {
      "type": "Feature",
      "properties": {
        "norad_id": 37054,
        "name": "FENGYUN 1C DEB",
        "group": "fengyun-1c-debris",
        "lat": 28.948174467140838,
        "lon": -41.40513598057819,
        "alt_km": 828.973259576519,
        "timestamp": "2025-12-06T16:45:43.011047+00:00",
        "meta_object_name": "FENGYUN 1C DEB",
        "meta_object_id": "1999-025EEN",
        "meta_epoch": "2025-11-29T05:17:38.461056",
        "meta_mean_motion": 14.19427383,
        "meta_eccentricity": 0.01006888,
        "meta_inclination": 98.5491,
        "meta_ra_of_asc_node": 316.1491,
        "meta_arg_of_pericenter": 144.0639,
        "meta_mean_anomaly": 216.7364,
        "meta_ephemeris_type": 0,
        "meta_classification_type": "U",
        "meta_norad_cat_id": 37054,
        "meta_element_set_no": 999,
        "meta_rev_at_epoch": 64237,
        "meta_bstar": 0.00028093156,
        "meta_mean_motion_dot": 5.8e-06,
        "meta_mean_motion_ddot": 0,
        "tle_line1": "1 37054U 99025EEN 25333.22058404  .00000580  00000+0  28093-3 0  9992",
        "tle_line2": "2 37054  98.5491 316.1491 0100688 144.0639 216.7364 14.19427383642375"
      },
      "geometry": {
        "type": "Point",
        "coordinates": [
          -41.40513598057819,
          28.948174467140838
        ]
      }
    },
    {
      "type": "Feature",
      "properties": {
        "norad_id": 37056,
        "name": "FENGYUN 1C DEB",
        "group": "fengyun-1c-debris",
        "lat": -80.87176648861927,
        "lon": 102.72723508540894,
        "alt_km": 774.3416826213161,
        "timestamp": "2025-12-06T16:45:43.011057+00:00",
        "meta_object_name": "FENGYUN 1C DEB",
        "meta_object_id": "1999-025EEQ",
        "meta_epoch": "2025-12-06T07:16:02.664768",
        "meta_mean_motion": 14.50416439,
        "meta_eccentricity": 0.02687185,
        "meta_inclination": 98.9819,
        "meta_ra_of_asc_node": 2.154,
        "meta_arg_of_pericenter": 165.1476,
        "meta_mean_anomaly": 195.7811,
        "meta_ephemeris_type": 0,
        "meta_classification_type": "U",
        "meta_norad_cat_id": 37056,
        "meta_element_set_no": 999,
        "meta_rev_at_epoch": 65318,
        "meta_bstar": 0.00057630655,
        "meta_mean_motion_dot": 3.53e-05,
        "meta_mean_motion_ddot": 0,
        "tle_line1": "1 37056U 99025EEQ 25340.30280862  .00003530  00000+0  57631-3 0  9994",
        "tle_line2": "2 37056  98.9819   2.1540 0268718 165.1476 195.7811 14.50416439653183"
      },
      "geometry": {
        "type": "Point",
        "coordinates": [
          102.72723508540894,
          -80.87176648861927
        ]
      }
    },
    {
      "type": "Feature",
      "properties": {
        "norad_id": 37057,
        "name": "FENGYUN 1C DEB",
        "group": "fengyun-1c-debris",
        "lat": 59.664717209063625,
        "lon": -168.7402132042633,
        "alt_km": 733.7219599148566,
        "timestamp": "2025-12-06T16:45:43.011067+00:00",
        "meta_object_name": "FENGYUN 1C DEB",
        "meta_object_id": "1999-025EER",
        "meta_epoch": "2025-11-29T19:03:44.604864",
        "meta_mean_motion": 13.96084171,
        "meta_eccentricity": 0.02847546,
        "meta_inclination": 98.9242,
        "meta_ra_of_asc_node": 348.9836,
        "meta_arg_of_pericenter": 175.0613,
        "meta_mean_anomaly": 185.3468,
        "meta_ephemeris_type": 0,
        "meta_classification_type": "U",
        "meta_norad_cat_id": 37057,
        "meta_element_set_no": 999,
        "meta_rev_at_epoch": 63417,
        "meta_bstar": 7.4994396e-05,
        "meta_mean_motion_dot": 1.02e-06,
        "meta_mean_motion_ddot": 0,
        "tle_line1": "1 37057U 99025EER 25333.79426626  .00000102  00000+0  74994-4 0  9994",
        "tle_line2": "2 37057  98.9242 348.9836 0284754 175.0613 185.3468 13.96084171634178"
      },
      "geometry": {
        "type": "Point",
        "coordinates": [
          -168.7402132042633,
          59.664717209063625
        ]
      }
    }
  ]
}